{"fetched_at":"2026-07-15T17:47:25.846Z","source":"https://celestrak.org/NORAD/elements/gp.php?NAME=PLEIADES&FORMAT=JSON","constellation":"pleiades-neo","records":[{"OBJECT_NAME":"PLEIADES NEO 3","OBJECT_ID":"2021-034A","EPOCH":"2026-07-15T05:04:41.016576","CLASSIFICATION_TYPE":"U","MEAN_MOTION":14.81665536,"ECCENTRICITY":0.0001291,"INCLINATION":97.8946,"RA_OF_ASC_NODE":270.5748,"ARG_OF_PERICENTER":94.3058,"MEAN_ANOMALY":265.8303,"EPHEMERIS_TYPE":0,"NORAD_CAT_ID":48268,"ELEMENT_SET_NO":999,"REV_AT_EPOCH":28180,"BSTAR":-0.000077173,"MEAN_MOTION_DOT":-0.00000659,"MEAN_MOTION_DDOT":0},{"OBJECT_NAME":"PLEIADES NEO 4","OBJECT_ID":"2021-073E","EPOCH":"2026-07-15T04:16:03.126144","CLASSIFICATION_TYPE":"U","MEAN_MOTION":14.81674201,"ECCENTRICITY":0.0001353,"INCLINATION":97.8945,"RA_OF_ASC_NODE":270.5376,"ARG_OF_PERICENTER":95.1057,"MEAN_ANOMALY":265.031,"EPHEMERIS_TYPE":0,"NORAD_CAT_ID":49070,"ELEMENT_SET_NO":999,"REV_AT_EPOCH":26551,"BSTAR":0.00013407,"MEAN_MOTION_DOT":0.00001003,"MEAN_MOTION_DDOT":0}]}
